MEAN_MOTION;ECCENTRICITY;INCLINATION;RA_OF_ASC_NODE;ARG_OF_PERICENTER;MEAN_ANOMALY;BSTAR;MEAN_MOTION_DOT;MEAN_MOTION_DDOT;TYPE
0.98405235;0.0027794;15.0673;352.1611;343.2557;213.1218;0;-1.2E-7;0;Intelsat
0.98405396;0.0027755;15.0666;352.1506;343.4156;236.9371;0;-2.0E-7;0;Intelsat
0.98405636;0.0027726;15.066;352.1413;343.5518;217.2637;0;-3.2E-7;0;Intelsat
0.98405958;0.0027699;15.0653;352.1314;343.6865;216.991;0;-4.9E-7;0;Intelsat
0.98406996;0.0027629;15.0634;352.1026;344.0956;192.7815;0;-1.21E-6;0;Intelsat
0.98407454;0.0027614;15.0627;352.0929;344.2277;192.3647;0;-1.48E-6;0;Intelsat
0.9840787;0.0027599;15.062;352.0818;344.4477;239.9529;0;-1.78E-6;0;Intelsat
0.98408286;0.0027589;15.0612;352.0705;344.6088;296.2444;0;-2.05E-6;0;Intelsat
0.9840851;0.0027574;15.0605;352.0615;344.7919;270.1044;0;-2.23E-6;0;Intelsat
0.98408592;0.0027553;15.0599;352.0537;344.9095;199.4377;0;-2.36E-6;0;Intelsat
0.98408657;0.0027536;15.0592;352.044;345.0893;194.8622;0;-2.46E-6;0;Intelsat
0.98408454;0.0027486;15.0578;352.0245;345.4659;200.4834;0;-2.45E-6;0;Intelsat
0.98408169;0.0027427;15.0571;352.0149;345.7225;193.4668;0;-2.34E-6;0;Intelsat
0.98407851;0.0027391;15.0563;352.0035;345.9362;252.8623;0;-2.13E-6;0;Intelsat
0.98407418;0.0027363;15.0557;351.9953;346.0792;196.3962;0;-1.94E-6;0;Intelsat
0.98407417;0.0027361;15.0557;351.9951;346.0869;204.7926;0;-1.93E-6;0;Intelsat
0.98407;0.0027331;15.055;351.9854;346.2498;201.8613;0;-1.66E-6;0;Intelsat
0.9840653;0.0027286;15.0543;351.9761;346.4374;187.9915;0;-1.37E-6;0;Intelsat
0.98406404;0.0027279;15.0542;351.9736;346.4585;281.3259;0;-1.29E-6;0;Intelsat
0.98406056;0.0027245;15.0536;351.9666;346.6037;183.4236;0;-1.06E-6;0;Intelsat
0.98405595;0.0027209;15.0529;351.9566;346.744;196.1541;0;-7.5E-7;0;Intelsat
0.98405217;0.0027145;15.0521;351.9455;346.9184;246.7917;0;-4.5E-7;0;Intelsat
0.98404982;0.0027098;15.0514;351.9371;347.06;199.9731;0;-2.6E-7;0;Intelsat
0.98404786;0.002703;15.0507;351.9272;347.2198;205.4029;0;-1.0E-7;0;Intelsat
0.98404785;0.002697;15.05;351.918;347.3685;185.9312;0;-2.0E-8;0;Intelsat
0.98404842;0.0026909;15.0493;351.9083;347.5026;181.4095;0;0;0;Intelsat
0.98405045;0.0026844;15.0486;351.898;347.6306;202.1724;0;-8.0E-8;0;Intelsat
0.98405344;0.0026779;15.0479;351.8883;347.7591;197.6439;0;-2.2E-7;0;Intelsat
0.98405377;0.0026773;15.0479;351.8872;347.7686;236.7557;0;-2.3E-7;0;Intelsat
0.98405709;0.0026732;15.0473;351.8786;347.8432;193.1488;0;-4.1E-7;0;Intelsat
0.98406137;0.0026685;15.0465;351.8683;347.9402;213.8661;0;-6.7E-7;0;Intelsat
0.98406551;0.0026636;15.0459;351.8594;348.0408;184.1544;0;-9.2E-7;0;Intelsat
0.98407426;0.0026556;15.0445;351.8399;348.2358;191.8577;0;-1.49E-6;0;Intelsat
0.98407789;0.0026517;15.0438;351.8301;348.3445;195.9535;0;-1.74E-6;0;Intelsat
0.98408076;0.0026483;15.0431;351.8206;348.4532;191.4458;0;-1.96E-6;0;Intelsat
0.98408076;0.0026483;15.0431;351.8206;348.4532;191.4458;0;-1.96E-6;0;Intelsat
0.98408251;0.0026451;15.0424;351.8111;348.5652;186.9455;0;-2.12E-6;0;Intelsat
0.98408357;0.0026417;15.0417;351.8015;348.6937;182.4201;0;-2.24E-6;0;Intelsat
0.98408358;0.0026423;15.0417;351.8011;348.6953;200.6119;0;-2.24E-6;0;Intelsat
0.98408342;0.002635;15.0407;351.7879;348.9151;330.3427;0;-2.3E-6;0;Intelsat
0.98408232;0.0026293;15.04;351.7797;349.0601;279.1446;0;-2.28E-6;0;Intelsat
0.98408223;0.0026295;15.04;351.7784;349.073;327.3585;0;-2.27E-6;0;Intelsat
0.98408104;0.0026268;15.0395;351.7723;349.159;194.0844;0;-2.23E-6;0;Intelsat
0.9840786;0.0026222;15.0388;351.7628;349.3145;189.5216;0;-2.11E-6;0;Intelsat
0.98407561;0.0026174;15.038;351.7533;349.4716;184.981;0;-1.95E-6;0;Intelsat
0.98407059;0.00261;15.0369;351.7391;349.6971;358.1491;0;-1.65E-6;0;Intelsat
0.98406867;0.0026059;15.0365;351.7337;349.7962;201.1602;0;-1.52E-6;0;Intelsat
0.98406389;0.0025986;15.0355;351.7203;349.9964;343.0449;0;-1.17E-6;0;Intelsat
0.98406176;0.002595;15.035;351.7148;350.0944;192.0159;0;-1.03E-6;0;Intelsat
0.98405857;0.0025886;15.0343;351.7053;350.238;187.4438;0;-7.9E-7;0;Intelsat
0.98405615;0.0025818;15.0335;351.6951;350.3822;210.1816;0;-5.6E-7;0;Intelsat
0.9840552;0.0025791;15.0332;351.691;350.4181;0.6599;0;-4.7E-7;0;Intelsat
0.9840542;0.0025751;15.0328;351.6859;350.5098;193.6065;0;-3.7E-7;0;Intelsat
0.98405223;0.0025665;15.032;351.6755;350.6377;220.5983;0;-2.2E-7;0;Intelsat
0.98405235;0.0025648;15.0317;351.6721;350.6508;348.803;0;-1.8E-7;0;Intelsat
0.98405225;0.0025605;15.0313;351.6666;350.7357;194.643;0;-1.3E-7;0;Intelsat
0.98405255;0.0025476;15.0302;351.6522;350.87;7.8408;0;-9.0E-8;0;Intelsat
0.98405412;0.00254;15.0295;351.6426;350.9517;3.4123;0;-1.3E-7;0;Intelsat
0.98405609;0.0025323;15.0288;351.6329;351.0259;358.9182;0;-2.4E-7;0;Intelsat
0.98405771;0.0025292;15.0284;351.6281;351.0689;176.6745;0;-3.1E-7;0;Intelsat
0.98406095;0.0025216;15.0276;351.6177;351.1278;201.3429;0;-5.1E-7;0;Intelsat
0.984066;0.0025131;15.0268;351.606;351.1908;276.7741;0;-8.0E-7;0;Intelsat
0.98406692;0.0025116;15.0266;351.6037;351.1944;2.1303;0;-8.6E-7;0;Intelsat
0.98407068;0.0025066;15.0259;351.5939;351.2319;6.4045;0;-1.14E-6;0;Intelsat
0.98407459;0.0025007;15.0251;351.5843;351.2916;1.9368;0;-1.41E-6;0;Intelsat
0.98407851;0.0024954;15.0244;351.5748;351.3453;357.4862;0;-1.69E-6;0;Intelsat
0.98408061;0.002493;15.024;351.5693;351.3654;200.5782;0;-1.84E-6;0;Intelsat
0.98408442;0.0024848;15.0229;351.555;351.4806;13.881;0;-2.18E-6;0;Intelsat
0.98408684;0.0024805;15.0221;351.5455;351.5444;9.4275;0;-2.35E-6;0;Intelsat
0.98408719;0.0024789;15.0218;351.5411;351.5551;172.9611;0;-2.41E-6;0;Intelsat
0.98408795;0.0024762;15.0214;351.536;351.6189;4.952;0;-2.46E-6;0;Intelsat
0.98408795;0.0024762;15.0214;351.536;351.6189;4.952;0;-2.47E-6;0;Intelsat
0.98408774;0.0024711;15.0206;351.5264;351.7073;0.443;0;-2.52E-6;0;Intelsat
0.98408722;0.0024683;15.0202;351.5213;351.7414;191.2972;0;-2.51E-6;0;Intelsat
0.98408619;0.0024655;15.0198;351.5169;351.8018;355.906;0;-2.5E-6;0;Intelsat
0.98408619;0.0024655;15.0198;351.5169;351.8018;355.906;0;-2.5E-6;0;Intelsat
0.98408383;0.0024603;15.0191;351.5068;351.8955;9.9238;0;-2.4E-6;0;Intelsat
0.98408079;0.0024545;15.0184;351.4971;351.993;12.3103;0;-2.24E-6;0;Intelsat
0.98407878;0.0024514;15.0179;351.4923;352.0403;190.0563;0;-2.14E-6;0;Intelsat
0.98407426;0.0024456;15.0172;351.4828;352.1402;185.5278;0;-1.89E-6;0;Intelsat
0.98407184;0.0024424;15.0168;351.478;352.189;3.2912;0;-1.75E-6;0;Intelsat
0.98406967;0.0024384;15.0164;351.4732;352.2471;181.0226;0;-1.61E-6;0;Intelsat
0.98406465;0.0024304;15.0158;351.4637;352.3502;176.5058;0;-1.3E-6;0;Intelsat
0.98406194;0.0024273;15.0154;351.4588;352.3933;3.5201;0;-1.14E-6;0;Intelsat
0.98405576;0.0024151;15.0142;351.444;352.5502;192.8349;0;-6.7E-7;0;Intelsat
0.98405398;0.0024115;15.0138;351.4393;352.5752;10.5579;0;-5.4E-7;0;Intelsat
0.98404966;0.0024009;15.0126;351.4251;352.7114;183.7983;0;-2.0E-7;0;Intelsat
0.9840486;0.0023926;15.0119;351.4154;352.7752;179.3121;0;-5.0E-8;0;Intelsat
0.9840484;0.0023832;15.011;351.4052;352.8391;200.1719;0;3.0E-8;0;Intelsat
0.9840496;0.0023747;15.0102;351.3956;352.8783;195.7031;0;2.0E-8;0;Intelsat
0.98405158;0.0023664;15.0095;351.3863;352.9012;178.2649;0;-5.0E-8;0;Intelsat
0.9840548;0.0023578;15.0087;351.3762;352.9121;186.8426;0;-2.1E-7;0;Intelsat
0.98405674;0.0023531;15.0082;351.3714;352.9049;4.6435;0;-3.1E-7;0;Intelsat
0.98406288;0.0023424;15.007;351.3569;352.8959;178.0398;0;-6.7E-7;0;Intelsat
0.98406511;0.002338;15.0067;351.3521;352.8895;355.8461;0;-8.1E-7;0;Intelsat
0.98406961;0.0023319;15.0058;351.3418;352.8696;16.7901;0;-1.12E-6;0;Intelsat
0.98407398;0.0023253;15.0053;351.3325;352.8552;0.6369;0;-1.39E-6;0;Intelsat
0.98407957;0.0023179;15.004;351.3178;352.8148;185.8127;0;-1.79E-6;0;Intelsat
0.98408077;0.0023144;15.0037;351.3131;352.82;3.6231;0;-1.9E-6;0;Intelsat
0.98408199;0.0023127;15.0032;351.3083;352.7982;181.4285;0;-2.0E-6;0;Intelsat
0.98408379;0.0023079;15.0023;351.2988;352.7888;177.052;0;-2.16E-6;0;Intelsat
0.9840843;0.0023052;15.0019;351.2933;352.8058;20.1825;0;-2.23E-6;0;Intelsat
0.98408442;0.0023034;15.0015;351.2885;352.7861;197.9874;0;-2.27E-6;0;Intelsat
0.98408397;0.002297;15.0007;351.279;352.7868;193.5786;0;-2.31E-6;0;Intelsat
0.98408373;0.0022951;15.0003;351.2741;352.8157;11.3365;0;-2.31E-6;0;Intelsat
0.98408308;0.0022933;14.9998;351.2694;352.8077;189.1289;0;-2.29E-6;0;Intelsat
0.98408121;0.0022885;14.999;351.2597;352.8305;186.2445;0;-2.22E-6;0;Intelsat
0.98407966;0.0022862;14.9986;351.2549;352.8588;2.4912;0;-2.16E-6;0;Intelsat
0.98407504;0.0022781;14.9974;351.2396;352.8937;209.8398;0;-1.9E-6;0;Intelsat
0.98407356;0.0022773;14.9969;351.2348;352.9221;26.4069;0;-1.8E-6;0;Intelsat
0.9840695;0.0022712;14.9961;351.2252;352.954;23.1749;0;-1.58E-6;0;Intelsat
0.98406454;0.0022615;14.9949;351.2111;353.0043;187.8514;0;-1.22E-6;0;Intelsat
0.98406454;0.0022615;14.9949;351.2111;353.0043;187.8514;0;-1.22E-6;0;Intelsat
0.98405953;0.0022516;14.9938;351.1969;353.0343;353.6256;0;-8.6E-7;0;Intelsat
0.98405832;0.0022489;14.9934;351.1919;353.0682;178.9568;0;-7.3E-7;0;Intelsat
0.98405688;0.0022452;14.993;351.1871;353.0621;356.7462;0;-6.2E-7;0;Intelsat
0.98405488;0.0022368;14.9922;351.1767;353.072;17.6758;0;-4.0E-7;0;Intelsat
0.98405407;0.0022327;14.9918;351.1719;353.0966;195.4073;0;-3.2E-7;0;Intelsat
0.98405325;0.0022287;14.9913;351.1668;353.0763;22.9826;0;-2.4E-7;0;Intelsat
0.98405246;0.002221;14.9907;351.1571;353.0731;20.3571;0;-1.2E-7;0;Intelsat
0.98405238;0.0022172;14.9903;351.1526;353.0886;186.5811;0;-9.0E-8;0;Intelsat
0.98405319;0.0022054;14.9892;351.138;353.0325;0.0071;0;-5.0E-8;0;Intelsat
0.98405404;0.0022016;14.9888;351.1331;353.0274;177.7996;0;-7.0E-8;0;Intelsat
0.98405484;0.0021971;14.9884;351.1276;352.9853;20.9365;0;-1.2E-7;0;Intelsat
0.9840572;0.0021896;14.9876;351.1182;352.9284;2.0693;0;-2.3E-7;0;Intelsat
0.98405893;0.0021865;14.9872;351.113;352.9116;194.4149;0;-3.2E-7;0;Intelsat
0.98406059;0.002182;14.9868;351.108;352.8554;15.6414;0;-4.1E-7;0;Intelsat
0.9840641;0.0021754;14.9861;351.0985;352.7834;3.4701;0;-6.3E-7;0;Intelsat
0.98406585;0.0021729;14.9857;351.0935;352.7387;185.7801;0;-7.6E-7;0;Intelsat
